NORAD_CAT_ID,OBJECT_NAME,OBJECT_TYPE,EPOCH,MEAN_MOTION,ECCENTRICITY,INCLINATION,RA_OF_ASC_NODE,ARG_OF_PERICENTER,MEAN_ANOMALY,BSTAR,MEAN_MOTION_DOT,MEAN_MOTION_DDOT,TLE_LINE0,TLE_LINE1,TLE_LINE2,SEMIMAJOR_AXIS,PERIOD,APOGEE,PERIGEE,DECAYED
51876.0,STARLINK-3583,PAYLOAD,2023-01-01 19:53:31,15.08834057,0.000359,53.2172,189.4023,33.6728,326.4492,3.5931e-05,2.83e-06,0.0,0 STARLINK-3583,1 51876U 22022AA  23001.82883611  .00000283  00000-0  35931-4 0  9996,2 51876  53.2172 189.4023 0003590  33.6728 326.4492 15.08834057 47565,6917.899,95.438,542.247,537.28,0.0
51876.0,STARLINK-3583,PAYLOAD,2023-01-02 11:47:23,15.08823611,0.0003387,53.2169,186.4288,36.4938,323.6285,0.00017547,2.504e-05,0.0,0 STARLINK-3583,1 51876U 22022AA  23002.49123978  .00002504  00000-0  17547-3 0  9993,2 51876  53.2169 186.4288 0003387  36.4938 323.6285 15.08823611 47663,6917.93,95.439,542.139,537.452,0.0
51876.0,STARLINK-3583,PAYLOAD,2023-01-02 18:08:55,15.08839365,0.0003413999999999,53.2168,185.2397,36.8872,323.2355,3.3098e-05,2.38e-06,0.0,0 STARLINK-3583,1 51876U 22022AA  23002.75619384  .00000238  00000-0  33098-4 0  9995,2 51876  53.2168 185.2397 0003414  36.8872 323.2355 15.08839365 47704,6917.882,95.438,542.109,537.386,0.0
51876.0,STARLINK-3583,PAYLOAD,2023-01-03 05:16:36,15.08845373,0.0003438999999999,53.2169,183.1582,37.7803,322.343,2.5184e-05,1.12e-06,0.0,0 STARLINK-3583,1 51876U 22022AA  23003.21987001  .00000112  00000-0  25184-4 0  9999,2 51876  53.2169 183.1582 0003439  37.7803 322.3430 15.08845373 47776,6917.864000000001,95.437,542.1080000000002,537.35,0.0
51876.0,STARLINK-3583,PAYLOAD,2023-01-03 11:38:09,15.08838644,0.0003476,53.2168,181.9691,38.2793,321.8446,0.00011447,1.534e-05,0.0,0 STARLINK-3583,1 51876U 22022AA  23003.48483068  .00001534  00000-0  11447-3 0  9997,2 51876  53.2168 181.9691 0003476  38.2793 321.8446 15.08838644 47816,6917.885,95.438,542.154,537.345,0.0
51876.0,STARLINK-3583,PAYLOAD,2023-01-04 11:28:55,15.08850826,0.0003549999999999,53.2166,177.5087,40.791,319.3347,0.00014946,2.091e-05,0.0,0 STARLINK-3583,1 51876U 22022AA  23004.47842019  .00002091  00000-0  14946-3 0  9998,2 51876  53.2166 177.5087 0003550  40.7910 319.3347 15.08850826 47960,6917.847,95.437,542.168,537.256,0.0
51876.0,STARLINK-3583,PAYLOAD,2023-01-04 16:15:04,15.0885262,0.0003551,53.2167,176.6166,40.9588,319.1670000000001,0.00015865,2.238e-05,0.0,0 STARLINK-3583,1 51876U 22022AA  23004.67713745  .00002238  00000-0  15865-3 0  9997,2 51876  53.2167 176.6166 0003551  40.9588 319.1670 15.08852620 47997,6917.842,95.437,542.163,537.25,0.0
51876.0,STARLINK-3583,PAYLOAD,2023-01-05 06:33:33,15.08848795,0.0003875,53.2177,173.9437,38.7486,321.3784,6.062600000000001e-05,6.76e-06,0.0,0 STARLINK-3583,1 51876U 22022AA  23005.27330015  .00000676  00000-0  60626-4 0  9999,2 51876  53.2177 173.9437 0003875  38.7486 321.3784 15.08848795 48080,6917.854,95.437,542.399,537.038,0.0
51876.0,STARLINK-3583,PAYLOAD,2023-01-05 12:55:05,15.08854722,0.0003593,53.2168,172.7507,41.9045,318.2222,0.00010256,1.344e-05,0.0,0 STARLINK-3583,1 51876U 22022AA  23005.53825279  .00001344  00000-0  10256-3 0  9995,2 51876  53.2168 172.7507 0003593  41.9045 318.2222 15.08854722 48123,6917.835,95.437,542.186,537.215,0.0
51876.0,STARLINK-3583,PAYLOAD,2023-01-05 17:41:14,15.08853577,0.0003555,53.2167,171.8582,43.8827,316.2447,8.662100000000001e-05,1.091e-05,0.0,0 STARLINK-3583,1 51876U 22022AA  23005.73697234  .00001091  00000-0  86621-4 0  9994,2 51876  53.2167 171.8582 0003555  43.8827 316.2447 15.08853577 48159,6917.839,95.437,542.163,537.245,0.0
51876.0,STARLINK-3583,PAYLOAD,2023-01-06 11:10:29,15.08842564,0.0003702,53.2183,168.5926,41.4782,318.6491,-2.1903e-05,-6.38e-06,0.0,0 STARLINK-3583,1 51876U 22022AA  23006.46562020 -.00000638  00000-0 -21903-4 0  9999,2 51876  53.2183 168.5926 0003702  41.4782 318.6491 15.08842564 48261,6917.873000000001,95.437,542.299,537.177,0.0
51876.0,STARLINK-3583,PAYLOAD,2023-01-06 20:42:48,15.08850068,0.0003485,53.217,166.8047,45.0766,315.0508,-0.00013864,-2.496e-05,0.0,0 STARLINK-3583,1 51876U 22022AA  23006.86305620 -.00002496  00000-0 -13864-3 0  9994,2 51876  53.2170 166.8047 0003485  45.0766 315.0508 15.08850068 48327,6917.85,95.437,542.125,537.304,0.0
51876.0,STARLINK-3583,PAYLOAD,2023-01-07 03:04:21,15.08830177,0.0003633,53.2169,165.6145,41.173,318.9535,-6.934399999999999e-05,-1.392e-05,0.0,0 STARLINK-3583,1 51876U 22022AA  23007.12802866 -.00001392  00000-0 -69344-4 0  9997,2 51876  53.2169 165.6145 0003633  41.1730 318.9535 15.08830177 48369,6917.91,95.438,542.289,537.262,0.0
51876.0,STARLINK-3583,PAYLOAD,2023-01-07 11:01:18,15.0882875,0.0004935,53.2173,164.1283,48.0158,312.1254,-0.00012857,-2.335e-05,0.0,0 STARLINK-3583,1 51876U 22022AA  23007.45923806 -.00002335  00000-0 -12857-3 0  9995,2 51876  53.2173 164.1283 0004935  48.0158 312.1254 15.08828750 48411,6917.915,95.438,543.194,536.366,0.0
51876.0,STARLINK-3583,PAYLOAD,2023-01-07 17:22:51,15.08822136,0.0003382,53.2171,162.9387,38.0929,322.0302,-0.0001730999999999,-3.042e-05,0.0,0 STARLINK-3583,1 51876U 22022AA  23007.72420459 -.00003042  00000-0 -17310-3 0  9996,2 51876  53.2171 162.9387 0003382  38.0929 322.0302 15.08822136 48450,6917.935,95.439,542.14,537.46,0.0
51876.0,STARLINK-3583,PAYLOAD,2023-01-08 12:27:27,15.08842074,0.0003386,53.2179,159.3691,37.2513,322.8713,0.00015809,2.228e-05,0.0,0 STARLINK-3583,1 51876U 22022AA  23008.51906968  .00002228  00000-0  15809-3 0  9992,2 51876  53.2179 159.3691 0003386  37.2513 322.8713 15.08842074 48570,6917.874,95.437,542.081,537.3969999999998,0.0
51876.0,STARLINK-3583,PAYLOAD,2023-01-09 02:45:55,15.08845993,0.0003647,53.2179,156.6928,36.3078,323.8161,0.00022982,3.372e-05,0.0,0 STARLINK-3583,1 51876U 22022AA  23009.11522707  .00003372  00000-0  22982-3 0  9995,2 51876  53.2179 156.6928 0003647  36.3078 323.8161 15.08845993 48660,6917.861999999999,95.437,542.25,537.2040000000002,0.0
51876.0,STARLINK-3583,PAYLOAD,2023-01-10 12:09:01,15.08852711,0.0003628,53.2142,150.4499,40.4002,319.7259,7.3455e-05,8.81e-06,0.0,0 STARLINK-3583,1 51876U 22022AA  23010.50626961  .00000881  00000-0  73455-4 0  9991,2 51876  53.2142 150.4499 0003628  40.4002 319.7259 15.08852711 48878,6917.842,95.437,542.216,537.197,0.0
51876.0,STARLINK-3583,PAYLOAD,2023-01-10 15:19:48,15.08837195,0.0003072,53.2166,149.8551,33.5003,326.6183,0.0002878,4.295e-05,0.0,0 STARLINK-3583,1 51876U 22022AA  23010.63875264  .00004295  00000-0  28780-3 0  9990,2 51876  53.2166 149.8551 0003072  33.5003 326.6183 15.08837195 48896,6917.889,95.438,541.879,537.629,0.0
51876.0,STARLINK-3583,PAYLOAD,2023-01-11 15:10:34,15.08851659,0.0003234,53.2163,145.3941,32.8892,327.2301,9.0538e-05,1.153e-05,0.0,0 STARLINK-3583,1 51876U 22022AA  23011.63233974  .00001153  00000-0  90538-4 0  9998,2 51876  53.2163 145.3941 0003234  32.8892 327.2301 15.08851659 49043,6917.845,95.437,541.947,537.4730000000002,0.0
51876.0,STARLINK-3583,PAYLOAD,2023-01-11 18:21:20,15.08848954,0.0003173,53.2168,144.7989,31.8137,328.3046,6.0824e-05,6.8e-06,0.0,0 STARLINK-3583,1 51876U 22022AA  23011.76482131  .00000680  00000-0  60824-4 0  9992,2 51876  53.2168 144.7989 0003173  31.8137 328.3046 15.08848954 49060,6917.853,95.437,541.913,537.523,0.0
51876.0,STARLINK-3583,PAYLOAD,2023-01-12 02:18:17,15.08834404,0.0003475,53.2161,143.3128,38.2421,321.8817,-6.313300000000001e-05,-1.293e-05,0.0,0 STARLINK-3583,1 51876U 22022AA  23012.09603583 -.00001293  00000-0 -63133-4 0  9994,2 51876  53.2161 143.3128 0003475  38.2421 321.8817 15.08834404 49110,6917.897,95.438,542.1659999999998,537.359,0.0
51876.0,STARLINK-3583,PAYLOAD,2023-01-12 15:01:22,15.08829542,0.0003049,53.2161,140.9339,35.3521,324.7673,-9.8119e-05,-1.85e-05,0.0,0 STARLINK-3583,1 51876U 22022AA  23012.62596020 -.00001850  00000-0 -98119-4 0  9991,2 51876  53.2161 140.9339 0003049  35.3521 324.7673 15.08829542 49190,6917.911999999998,95.438,541.887,537.668,0.0
51876.0,STARLINK-3583,PAYLOAD,2023-01-13 14:52:08,15.0884899,0.0003117,53.2172,136.4736,32.1856,327.9326,0.00013082,1.795e-05,0.0,0 STARLINK-3583,1 51876U 22022AA  23013.61954722  .00001795  00000-0  13082-3 0  9999,2 51876  53.2172 136.4736 0003117  32.1856 327.9326 15.08848990 49340,6917.853,95.437,541.874,537.562,0.0
51876.0,STARLINK-3583,PAYLOAD,2023-01-14 06:46:01,15.08826118,0.000291,53.217,133.4997,35.7291,324.3896,0.00011587,1.555e-05,0.0,0 STARLINK-3583,1 51876U 22022AA  23014.28196324  .00001555  00000-0  11587-3 0  9991,2 51876  53.2170 133.4997 0002910  35.7291 324.3896 15.08826118 49448,6917.923000000001,95.438,541.8009999999999,537.775,0.0
51876.0,STARLINK-3583,PAYLOAD,2023-01-14 14:42:57,15.0883981,0.0002908999999999,53.2168,132.0139,32.6899,327.4273,0.00032689,4.918e-05,0.0,0 STARLINK-3583,1 51876U 22022AA  23014.61316335  .00004918  00000-0  32689-3 0  9996,2 51876  53.2168 132.0139 0002909  32.6899 327.4273 15.08839810 49497,6917.880999999999,95.438,541.758,537.734,0.0
51876.0,STARLINK-3583,PAYLOAD,2023-01-15 00:15:16,15.08828556,0.0003291,53.217,130.2295,43.7554,316.3698,1.6444e-05,-2.7e-07,0.0,0 STARLINK-3583,1 51876U 22022AA  23015.01061143 -.00000027  00000-0  16444-4 0  9995,2 51876  53.2170 130.2295 0003291  43.7554 316.3698 15.08828556 49559,6917.915,95.438,542.057,537.504,0.0
51876.0,STARLINK-3583,PAYLOAD,2023-01-15 12:58:20,15.08846883,0.0002881,53.2164,127.8508,39.9935,320.1269,9.5797e-05,1.237e-05,0.0,0 STARLINK-3583,1 51876U 22022AA  23015.54052075  .00001237  00000-0  95797-4 0  9998,2 51876  53.2164 127.8508 0002881  39.9935 320.1269 15.08846883 49634,6917.859,95.437,541.717,537.731,0.0
51876.0,STARLINK-3583,PAYLOAD,2023-01-15 14:33:44,15.08848028,0.0002747,53.2163,127.5534,39.6694,320.4499,0.00010819,1.434e-05,0.0,0 STARLINK-3583,1 51876U 22022AA  23015.60675982  .00001434  00000-0  10819-3 0  9993,2 51876  53.2163 127.5534 0002747  39.6694 320.4499 15.08848028 49641,6917.856,95.437,541.621,537.821,0.0
